NORAD_CAT_ID,OBJECT_NAME,OBJECT_TYPE,EPOCH,MEAN_MOTION,ECCENTRICITY,INCLINATION,RA_OF_ASC_NODE,ARG_OF_PERICENTER,MEAN_ANOMALY,BSTAR,MEAN_MOTION_DOT,MEAN_MOTION_DDOT,TLE_LINE0,TLE_LINE1,TLE_LINE2,SEMIMAJOR_AXIS,PERIOD,APOGEE,PERIGEE,DECAYED
55940.0,STARLINK-5864,PAYLOAD,2023-12-15 20:08:58,14.98327767,0.0002538,69.9992,178.977,260.077,100.0102,-1.7667e-05,-3.04e-06,0.0,0 STARLINK-5864,1 55940U 23037AC  23349.83956252 -.00000304  00000-0 -17667-4 0  9999,2 55940  69.9992 178.9770 0002538 260.0770 100.0102 14.98327767 42260,6950.2,96.107,573.829,570.301,0.0
55940.0,STARLINK-5864,PAYLOAD,2023-12-15 21:45:06,14.98326457,0.0002599,69.999,178.8077,265.9794,94.1068,-4.7661e-05,-6.62e-06,0.0,0 STARLINK-5864,1 55940U 23037AC  23349.90632441 -.00000662  00000-0 -47661-4 0  9992,2 55940  69.9990 178.8077 0002599 265.9794  94.1068 14.98326457 41936,6950.204,96.107,573.875,570.262,0.0
55940.0,STARLINK-5864,PAYLOAD,2023-12-16 13:46:26,14.98328695,0.0002566,69.9993,177.1251,261.0012,99.0857,1.3086e-05,6.3e-07,0.0,0 STARLINK-5864,1 55940U 23037AC  23350.57392150  .00000063  00000-0  13086-4 0  9994,2 55940  69.9993 177.1251 0002566 261.0012  99.0857 14.98328695 42037,6950.197,96.107,573.845,570.279,0.0
55940.0,STARLINK-5864,PAYLOAD,2023-12-16 20:10:59,14.9832943,0.000275,69.9985,176.45,268.5187,91.5657,1.4681e-05,8.2e-07,0.0,0 STARLINK-5864,1 55940U 23037AC  23350.84096121  .00000082  00000-0  14681-4 0  9996,2 55940  69.9985 176.4500 0002750 268.5187  91.5657 14.98329430 42412,6950.195,96.107,573.971,570.148,0.0
55940.0,STARLINK-5864,PAYLOAD,2023-12-16 21:47:07,14.98330498,0.0002732,69.9986,176.2821,267.32,92.7647,1.4727e-05,8.3e-07,0.0,0 STARLINK-5864,1 55940U 23037AC  23350.90772034  .00000083  00000-0  14727-4 0  9999,2 55940  69.9986 176.2821 0002732 267.3200  92.7647 14.98330498 42081,6950.191,96.107,573.955,570.158,0.0
55940.0,STARLINK-5864,PAYLOAD,2023-12-17 13:48:27,14.98330491,0.0002796,69.9985,174.5987,271.291,88.7929,4.8351e-05,4.84e-06,0.0,0 STARLINK-5864,1 55940U 23037AC  23351.57531929  .00000484  00000-0  48351-4 0  9994,2 55940  69.9985 174.5987 0002796 271.2910  88.7929 14.98330491 42188,6950.191,96.107,574.0,570.113,0.0
55940.0,STARLINK-5864,PAYLOAD,2023-12-17 20:12:59,14.98332256,0.0002701,69.9986,173.9258,268.6207,91.4642,6.9505e-05,7.36e-06,0.0,0 STARLINK-5864,1 55940U 23037AC  23351.84235719  .00000736  00000-0  69505-4 0  9996,2 55940  69.9986 173.9258 0002701 268.6207  91.4642 14.98332256 42564,6950.186,96.107,573.928,570.174,0.0
55940.0,STARLINK-5864,PAYLOAD,2023-12-17 21:49:07,14.98332677,0.0002701,69.9986,173.7575,268.6513,91.4336,7.2708e-05,7.75e-06,0.0,0 STARLINK-5864,1 55940U 23037AC  23351.90911678  .00000775  00000-0  72708-4 0  9990,2 55940  69.9986 173.7575 0002701 268.6513  91.4336 14.98332677 42235,6950.185,96.107,573.927,570.172,0.0
55940.0,STARLINK-5864,PAYLOAD,2023-12-18 13:50:28,14.98329932,0.0002531,69.9991,172.075,263.1247,96.9625,3.8001e-06,-4.8e-07,0.0,0 STARLINK-5864,1 55940U 23037AC  23352.57671950 -.00000048  00000-0  38001-5 0  9993,2 55940  69.9991 172.0750 0002531 263.1247  96.9625 14.98329932 42335,6950.193,96.107,573.817,570.299,0.0
55940.0,STARLINK-5864,PAYLOAD,2023-12-18 21:51:08,14.98329387,0.0002559,69.9991,171.2336,263.8126,96.2741,-5.5521e-06,-1.59e-06,0.0,0 STARLINK-5864,1 55940U 23037AC  23352.91052008 -.00000159  00000-0 -55521-5 0  9998,2 55940  69.9991 171.2336 0002559 263.8126  96.2741 14.98329387 42380,6950.195,96.107,573.838,570.281,0.0
55940.0,STARLINK-5864,PAYLOAD,2023-12-19 13:52:29,14.98333306,0.0002571,69.9989,169.5507,264.576,95.5106,-1.4028e-05,-2.6e-06,0.0,0 STARLINK-5864,1 55940U 23037AC  23353.57811697 -.00000260  00000-0 -14028-4 0  9997,2 55940  69.9989 169.5507 0002571 264.5760  95.5106 14.98333306 42487,6950.183,96.107,573.835,570.261,0.0
55940.0,STARLINK-5864,PAYLOAD,2023-12-19 21:53:09,14.98332118,0.0002607,69.9992,168.7091,265.8713,94.2148,-2.6719e-05,-4.12e-06,0.0,0 STARLINK-5864,1 55940U 23037AC  23353.91191758 -.00000412  00000-0 -26719-4 0  9993,2 55940  69.9992 168.7091 0002607 265.8713  94.2148 14.98332118 42877,6950.186,96.107,573.863,570.239,0.0
55940.0,STARLINK-5864,PAYLOAD,2023-12-20 13:54:30,14.98328282,0.0002773,69.9991,167.026,267.5543,92.5299,-2.0533e-05,-3.38e-06,0.0,0 STARLINK-5864,1 55940U 23037AC  23354.57951939 -.00000338  00000-0 -20533-4 0  9996,2 55940  69.9991 167.0260 0002773 267.5543  92.5299 14.98328282 42639,6950.198,96.107,573.99,570.136,0.0
55940.0,STARLINK-5864,PAYLOAD,2023-12-20 21:55:10,14.98331253,0.00028,69.9992,166.1847,267.9999,92.0839,1.0235e-05,2.9e-07,0.0,0 STARLINK-5864,1 55940U 23037AC  23354.91331670  .00000029  00000-0  10235-4 0  9991,2 55940  69.9992 166.1847 0002800 267.9999  92.0839 14.98331253 42683,6950.189,96.107,574.0,570.108,0.0
55940.0,STARLINK-5864,PAYLOAD,2023-12-21 13:56:31,14.98329798,0.0002807,69.9994,164.5017,269.0013,91.0824,5.1868e-06,-3.1e-07,0.0,0 STARLINK-5864,1 55940U 23037AC  23355.58091753 -.00000031  00000-0  51868-5 0  9992,2 55940  69.9994 164.5017 0002807 269.0013  91.0824 14.98329798 42788,6950.194,96.107,574.009,570.108,0.0
55940.0,STARLINK-5864,PAYLOAD,2023-12-21 20:21:02,14.98361764,0.0002554,69.9994,163.8287,271.7637,88.3229,-0.00049257,-5.97e-05,0.0,0 STARLINK-5864,1 55940U 23037AC  23355.84794973 -.00005970  00000-0 -49257-3 0  9990,2 55940  69.9994 163.8287 0002554 271.7637  88.3229 14.98361764 42822,6950.095,96.105,573.735,570.185,0.0
55940.0,STARLINK-5864,PAYLOAD,2023-12-22 12:22:24,14.98329949,0.0002829,69.9995,162.1453,268.9297,91.1538,3.989e-06,-4.5e-07,0.0,0 STARLINK-5864,1 55940U 23037AC  23356.51555690 -.00000045  00000-0  39890-5 0  9997,2 55940  69.9995 162.1453 0002829 268.9297  91.1538 14.98329949 43268,6950.193,96.107,574.024,570.092,0.0
55940.0,STARLINK-5864,PAYLOAD,2023-12-22 13:58:32,14.98329861,0.0002829,69.9995,161.9771,268.5046,91.5789,2.2695e-06,-6.6e-07,0.0,0 STARLINK-5864,1 55940U 23037AC  23356.58231699 -.00000066  00000-0  22695-5 0  9992,2 55940  69.9995 161.9771 0002829 268.5046  91.5789 14.98329861 42934,6950.193,96.107,574.025,570.092,0.0
55940.0,STARLINK-5864,PAYLOAD,2023-12-22 20:23:04,14.98330197,0.0002839,69.9995,161.3037,269.7653,90.318,6.3997e-06,-1.7e-07,0.0,0 STARLINK-5864,1 55940U 23037AC  23356.84935661 -.00000017  00000-0  63997-5 0  9997,2 55940  69.9995 161.3037 0002839 269.7653  90.3180 14.98330197 42971,6950.192,96.107,574.03,570.084,0.0
55940.0,STARLINK-5864,PAYLOAD,2023-12-23 12:24:25,14.98330877,0.0002788,69.9997,159.6208,267.0569,93.0271,-4.1968e-06,-1.43e-06,0.0,0 STARLINK-5864,1 55940U 23037AC  23357.51695606 -.00000143  00000-0 -41968-5 0  9999,2 55940  69.9997 159.6208 0002788 267.0569  93.0271 14.98330877 43419,6950.19,96.107,573.993,570.117,0.0
55940.0,STARLINK-5864,PAYLOAD,2023-12-23 14:00:33,14.98330639,0.0002793,69.9997,159.4525,266.6522,93.4318,-7.2883e-06,-1.8e-06,0.0,0 STARLINK-5864,1 55940U 23037AC  23357.58371623 -.00000180  00000-0 -72883-5 0  9997,2 55940  69.9997 159.4525 0002793 266.6522  93.4318 14.98330639 43084,6950.191,96.107,573.997,570.115,0.0
55940.0,STARLINK-5864,PAYLOAD,2023-12-23 20:25:05,14.98331342,0.0002796,69.9997,158.7791,266.672,93.412,1.6895e-06,-7.3e-07,0.0,0 STARLINK-5864,1 55940U 23037AC  23357.85075533 -.00000073  00000-0  16895-5 0  9999,2 55940  69.9997 158.7791 0002796 266.6720  93.4120 14.98331342 43122,6950.189,96.107,573.997,570.11,0.0
55940.0,STARLINK-5864,PAYLOAD,2023-12-24 12:26:25,14.98329825,0.0002814,69.9998,157.096,265.4097,94.6741,2.7389e-07,-9e-07,0.0,0 STARLINK-5864,1 55940U 23037AC  23358.51835573 -.00000090  00000-0  27389-6 0  9991,2 55940  69.9998 157.0960 0002814 265.4097  94.6741 14.98329825 43561,6950.193,96.107,574.014,570.103,0.0
55940.0,STARLINK-5864,PAYLOAD,2023-12-24 14:02:34,14.98329729,0.0002817,69.9998,156.9277,265.342,94.7418,-1.011e-06,-1.05e-06,0.0,0 STARLINK-5864,1 55940U 23037AC  23358.58511578 -.00000105  00000-0 -10110-5 0  9995,2 55940  69.9998 156.9277 0002817 265.3420  94.7418 14.98329729 43231,6950.194,96.107,574.017,570.101,0.0
55940.0,STARLINK-5864,PAYLOAD,2023-12-24 20:27:05,14.98333287,0.0002827,69.9999,156.2546,267.1476,92.9359,3.8148e-05,3.62e-06,0.0,0 STARLINK-5864,1 55940U 23037AC  23358.85215238  .00000362  00000-0  38148-4 0  9992,2 55940  69.9999 156.2546 0002827 267.1476  92.9359 14.98333287 43278,6950.183,96.107,574.013,570.083,0.0
55940.0,STARLINK-5864,PAYLOAD,2023-12-25 12:28:27,14.98327748,0.0002797,70.0,154.571,266.8783,93.2056,-2.0792e-05,-3.41e-06,0.0,0 STARLINK-5864,1 55940U 23037AC  23359.51975708 -.00000341  00000-0 -20792-4 0  9996,2 55940  70.0000 154.5710 0002797 266.8783  93.2056 14.98327748 43713,6950.2,96.107,574.009,570.121,0.0
55940.0,STARLINK-5864,PAYLOAD,2023-12-25 14:04:35,14.98327667,0.0002801,70.0,154.4027,266.8908,93.1931,-2.1624e-05,-3.51e-06,0.0,0 STARLINK-5864,1 55940U 23037AC  23359.58651718 -.00000351  00000-0 -21624-4 0  9991,2 55940  70.0000 154.4027 0002801 266.8908  93.1931 14.98327667 43382,6950.2,96.107,574.012,570.118,0.0
55940.0,STARLINK-5864,PAYLOAD,2023-12-25 20:29:07,14.98328788,0.0002832,70.0,153.7295,266.7175,93.366,1.2923e-05,6.1e-07,0.0,0 STARLINK-5864,1 55940U 23037AC  23359.85355587  .00000061  00000-0  12923-4 0  9994,2 55940  70.0000 153.7295 0002832 266.7175  93.3660 14.98328788 43421,6950.197,96.107,574.03,570.093,0.0
55940.0,STARLINK-5864,PAYLOAD,2023-12-26 14:06:35,14.98328816,0.000289,70.0002,151.878,271.1641,88.9187,2.8487e-05,2.47e-06,0.0,0 STARLINK-5864,1 55940U 23037AC  23360.58791524  .00000247  00000-0  28487-4 0  9999,2 55940  70.0002 151.8780 0002890 271.1641  88.9187 14.98328816 43531,6950.197,96.107,574.07,570.053,0.0
55940.0,STARLINK-5864,PAYLOAD,2023-12-26 18:54:59,14.98332462,0.0002906,70.0002,151.3733,269.6241,90.4585,4.3124e-07,-8.8e-07,0.0,0 STARLINK-5864,1 55940U 23037AC  23360.78819360 -.00000088  00000-0  43124-6 0  9991,2 55940  70.0002 151.3733 0002906 269.6241  90.4585 14.98332462 43903,6950.185,96.107,574.07,570.031,0.0
